[{"OBJECT_NAME":"TJS-15","OBJECT_ID":"2025-045A","EPOCH":"2026-04-03T16:47:21.609024","MEAN_MOTION":1.00269681,"ECCENTRICITY":0.0006633,"INCLINATION":0.2303,"RA_OF_ASC_NODE":84.486,"ARG_OF_PERICENTER":282.9335,"MEAN_ANOMALY":170.7975,"EPHEMERIS_TYPE":0,"CLASSIFICATION_TYPE":"U","NORAD_CAT_ID":63157,"ELEMENT_SET_NO":999,"REV_AT_EPOCH":401,"BSTAR":0,"MEAN_MOTION_DOT":-2.66e-6,"MEAN_MOTION_DDOT":0},{"OBJECT_NAME":"TIANLIAN 2-04","OBJECT_ID":"2025-062A","EPOCH":"2026-04-04T17:15:38.715840","MEAN_MOTION":1.00272158,"ECCENTRICITY":0.0033578,"INCLINATION":4.5639,"RA_OF_ASC_NODE":275.4584,"ARG_OF_PERICENTER":11.0263,"MEAN_ANOMALY":245.4837,"EPHEMERIS_TYPE":0,"CLASSIFICATION_TYPE":"U","NORAD_CAT_ID":63361,"ELEMENT_SET_NO":999,"REV_AT_EPOCH":386,"BSTAR":0,"MEAN_MOTION_DOT":-1.4e-6,"MEAN_MOTION_DDOT":0},{"OBJECT_NAME":"TJS-16","OBJECT_ID":"2025-064A","EPOCH":"2026-04-03T17:10:35.002560","MEAN_MOTION":1.0027209,"ECCENTRICITY":0.0004991,"INCLINATION":0.9063,"RA_OF_ASC_NODE":81.7352,"ARG_OF_PERICENTER":271.8343,"MEAN_ANOMALY":256.7076,"EPHEMERIS_TYPE":0,"CLASSIFICATION_TYPE":"U","NORAD_CAT_ID":63397,"ELEMENT_SET_NO":999,"REV_AT_EPOCH":364,"BSTAR":0,"MEAN_MOTION_DOT":-1.06e-6,"MEAN_MOTION_DDOT":0},{"OBJECT_NAME":"TJS-17","OBJECT_ID":"2025-073A","EPOCH":"2026-04-03T17:10:42.900384","MEAN_MOTION":1.00271682,"ECCENTRICITY":0.000403,"INCLINATION":0.8718,"RA_OF_ASC_NODE":83.201,"ARG_OF_PERICENTER":267.2192,"MEAN_ANOMALY":263.7959,"EPHEMERIS_TYPE":0,"CLASSIFICATION_TYPE":"U","NORAD_CAT_ID":63524,"ELEMENT_SET_NO":999,"REV_AT_EPOCH":354,"BSTAR":0,"MEAN_MOTION_DOT":-7.1e-7,"MEAN_MOTION_DDOT":0},{"OBJECT_NAME":"TIANLIAN 2-05","OBJECT_ID":"2025-084A","EPOCH":"2026-04-04T19:43:38.771328","MEAN_MOTION":1.00273566,"ECCENTRICITY":0.0003537,"INCLINATION":4.6378,"RA_OF_ASC_NODE":280.6441,"ARG_OF_PERICENTER":104.5237,"MEAN_ANOMALY":124.2213,"EPHEMERIS_TYPE":0,"CLASSIFICATION_TYPE":"U","NORAD_CAT_ID":63662,"ELEMENT_SET_NO":999,"REV_AT_EPOCH":364,"BSTAR":0,"MEAN_MOTION_DOT":1.2e-6,"MEAN_MOTION_DDOT":0},{"OBJECT_NAME":"TJS-19","OBJECT_ID":"2025-097A","EPOCH":"2026-04-03T17:28:50.729952","MEAN_MOTION":1.00273599,"ECCENTRICITY":0.000195,"INCLINATION":3.4137,"RA_OF_ASC_NODE":316.2641,"ARG_OF_PERICENTER":343.231,"MEAN_ANOMALY":296.0232,"EPHEMERIS_TYPE":0,"CLASSIFICATION_TYPE":"U","NORAD_CAT_ID":63924,"ELEMENT_SET_NO":999,"REV_AT_EPOCH":339,"BSTAR":0,"MEAN_MOTION_DOT":-2.81e-6,"MEAN_MOTION_DDOT":0},{"OBJECT_NAME":"CHINASAT 3B","OBJECT_ID":"2025-106A","EPOCH":"2026-04-04T20:25:39.723744","MEAN_MOTION":1.00272268,"ECCENTRICITY":0.000149,"INCLINATION":0.041,"RA_OF_ASC_NODE":1.2286,"ARG_OF_PERICENTER":17.7381,"MEAN_ANOMALY":287.9179,"EPHEMERIS_TYPE":0,"CLASSIFICATION_TYPE":"U","NORAD_CAT_ID":64062,"ELEMENT_SET_NO":999,"REV_AT_EPOCH":332,"BSTAR":0,"MEAN_MOTION_DOT":-4.4e-7,"MEAN_MOTION_DDOT":0},{"OBJECT_NAME":"SXM-10","OBJECT_ID":"2025-122A","EPOCH":"2026-04-04T13:56:44.556864","MEAN_MOTION":1.0027188,"ECCENTRICITY":0.0002531,"INCLINATION":0.0193,"RA_OF_ASC_NODE":86.5099,"ARG_OF_PERICENTER":291.4101,"MEAN_ANOMALY":267.9886,"EPHEMERIS_TYPE":0,"CLASSIFICATION_TYPE":"U","NORAD_CAT_ID":64290,"ELEMENT_SET_NO":999,"REV_AT_EPOCH":294,"BSTAR":0,"MEAN_MOTION_DOT":-1.7e-7,"MEAN_MOTION_DDOT":0},{"OBJECT_NAME":"CHINASAT 9C","OBJECT_ID":"2025-132A","EPOCH":"2026-04-04T21:05:39.437952","MEAN_MOTION":1.00271534,"ECCENTRICITY":0.0002827,"INCLINATION":0.0379,"RA_OF_ASC_NODE":95.3227,"ARG_OF_PERICENTER":279.2548,"MEAN_ANOMALY":227.2323,"EPHEMERIS_TYPE":0,"CLASSIFICATION_TYPE":"U","NORAD_CAT_ID":64470,"ELEMENT_SET_NO":999,"REV_AT_EPOCH":341,"BSTAR":0,"MEAN_MOTION_DOT":-2.47e-6,"MEAN_MOTION_DDOT":0},{"OBJECT_NAME":"MTG-S1","OBJECT_ID":"2025-143A","EPOCH":"2026-04-04T19:36:54.417600","MEAN_MOTION":1.00273554,"ECCENTRICITY":0.0002067,"INCLINATION":0.6201,"RA_OF_ASC_NODE":332.3642,"ARG_OF_PERICENTER":359.095,"MEAN_ANOMALY":152.378,"EPHEMERIS_TYPE":0,"CLASSIFICATION_TYPE":"U","NORAD_CAT_ID":64723,"ELEMENT_SET_NO":999,"REV_AT_EPOCH":268,"BSTAR":0,"MEAN_MOTION_DOT":-3.2e-7,"MEAN_MOTION_DDOT":0},{"OBJECT_NAME":"DROR 1","OBJECT_ID":"2025-148A","EPOCH":"2026-04-04T19:36:46.930176","MEAN_MOTION":1.00271801,"ECCENTRICITY":0.0003611,"INCLINATION":0.0503,"RA_OF_ASC_NODE":68.5101,"ARG_OF_PERICENTER":295.8923,"MEAN_ANOMALY":118.9078,"EPHEMERIS_TYPE":0,"CLASSIFICATION_TYPE":"U","NORAD_CAT_ID":64784,"ELEMENT_SET_NO":999,"REV_AT_EPOCH":256,"BSTAR":0,"MEAN_MOTION_DOT":-3.4e-7,"MEAN_MOTION_DDOT":0},{"OBJECT_NAME":"SHIYAN-29","OBJECT_ID":"2025-196A","EPOCH":"2026-04-04T21:07:19.543584","MEAN_MOTION":1.00279386,"ECCENTRICITY":0.0009613,"INCLINATION":28.745,"RA_OF_ASC_NODE":19.4596,"ARG_OF_PERICENTER":177.6568,"MEAN_ANOMALY":48.396,"EPHEMERIS_TYPE":0,"CLASSIFICATION_TYPE":"U","NORAD_CAT_ID":65486,"ELEMENT_SET_NO":999,"REV_AT_EPOCH":214,"BSTAR":0,"MEAN_MOTION_DOT":-2.76e-6,"MEAN_MOTION_DDOT":0},{"OBJECT_NAME":"TJS-20","OBJECT_ID":"2025-238A","EPOCH":"2026-04-04T17:23:38.626368","MEAN_MOTION":1.00271239,"ECCENTRICITY":0.0008454,"INCLINATION":5.6337,"RA_OF_ASC_NODE":299.8243,"ARG_OF_PERICENTER":103.6262,"MEAN_ANOMALY":112.8585,"EPHEMERIS_TYPE":0,"CLASSIFICATION_TYPE":"U","NORAD_CAT_ID":66142,"ELEMENT_SET_NO":999,"REV_AT_EPOCH":159,"BSTAR":0,"MEAN_MOTION_DOT":2.0e-7,"MEAN_MOTION_DDOT":0},{"OBJECT_NAME":"CMS-03 (GSAT-7R)","OBJECT_ID":"2025-249B","EPOCH":"2026-04-04T19:58:59.797920","MEAN_MOTION":1.00272302,"ECCENTRICITY":0.000388,"INCLINATION":0.0486,"RA_OF_ASC_NODE":264.7451,"ARG_OF_PERICENTER":101.6331,"MEAN_ANOMALY":200.5207,"EPHEMERIS_TYPE":0,"CLASSIFICATION_TYPE":"U","NORAD_CAT_ID":66311,"ELEMENT_SET_NO":999,"REV_AT_EPOCH":161,"BSTAR":0,"MEAN_MOTION_DOT":-7.7e-7,"MEAN_MOTION_DDOT":0},{"OBJECT_NAME":"VIASAT-3 F2","OBJECT_ID":"2025-261A","EPOCH":"2026-04-04T19:15:18.987840","MEAN_MOTION":1.00272459,"ECCENTRICITY":0.0002687,"INCLINATION":0.0402,"RA_OF_ASC_NODE":270.3037,"ARG_OF_PERICENTER":172.4115,"MEAN_ANOMALY":320.2442,"EPHEMERIS_TYPE":0,"CLASSIFICATION_TYPE":"U","NORAD_CAT_ID":66454,"ELEMENT_SET_NO":999,"REV_AT_EPOCH":204,"BSTAR":0,"MEAN_MOTION_DOT":-2.33e-6,"MEAN_MOTION_DDOT":0},{"OBJECT_NAME":"SHIJIAN-28 (SJ-28)","OBJECT_ID":"2025-277A","EPOCH":"2026-04-04T20:11:13.625952","MEAN_MOTION":1.00273633,"ECCENTRICITY":4.8e-6,"INCLINATION":4.7278,"RA_OF_ASC_NODE":273.2556,"ARG_OF_PERICENTER":160.8021,"MEAN_ANOMALY":178.7435,"EPHEMERIS_TYPE":0,"CLASSIFICATION_TYPE":"U","NORAD_CAT_ID":66549,"ELEMENT_SET_NO":999,"REV_AT_EPOCH":141,"BSTAR":0,"MEAN_MOTION_DOT":-3.65e-6,"MEAN_MOTION_DDOT":0},{"OBJECT_NAME":"TJS-22","OBJECT_ID":"2025-290A","EPOCH":"2026-04-04T01:44:08.295072","MEAN_MOTION":1.00272953,"ECCENTRICITY":0.0002525,"INCLINATION":1.7111,"RA_OF_ASC_NODE":285.7222,"ARG_OF_PERICENTER":1.2019,"MEAN_ANOMALY":357.9623,"EPHEMERIS_TYPE":0,"CLASSIFICATION_TYPE":"U","NORAD_CAT_ID":66990,"ELEMENT_SET_NO":999,"REV_AT_EPOCH":128,"BSTAR":0,"MEAN_MOTION_DOT":-1.0e-7,"MEAN_MOTION_DDOT":0},{"OBJECT_NAME":"TJS-23","OBJECT_ID":"2025-306A","EPOCH":"2026-04-03T19:20:08.143584","MEAN_MOTION":1.0027444,"ECCENTRICITY":0.00065698,"INCLINATION":5.7581,"RA_OF_ASC_NODE":297.8554,"ARG_OF_PERICENTER":118.4149,"MEAN_ANOMALY":241.3986,"EPHEMERIS_TYPE":0,"CLASSIFICATION_TYPE":"U","NORAD_CAT_ID":67226,"ELEMENT_SET_NO":999,"REV_AT_EPOCH":114,"BSTAR":0,"MEAN_MOTION_DOT":8.0e-8,"MEAN_MOTION_DDOT":0},{"OBJECT_NAME":"FENGYUN 4C","OBJECT_ID":"2025-312A","EPOCH":"2026-04-03T23:43:39.567360","MEAN_MOTION":1.00271772,"ECCENTRICITY":7.41e-5,"INCLINATION":0.0405,"RA_OF_ASC_NODE":38.1351,"ARG_OF_PERICENTER":52.6475,"MEAN_ANOMALY":230.4395,"EPHEMERIS_TYPE":0,"CLASSIFICATION_TYPE":"U","NORAD_CAT_ID":67246,"ELEMENT_SET_NO":999,"REV_AT_EPOCH":103,"BSTAR":0,"MEAN_MOTION_DOT":-3.24e-6,"MEAN_MOTION_DDOT":0},{"OBJECT_NAME":"SHIJIAN-29A (SJ-29A)","OBJECT_ID":"2025-315A","EPOCH":"2026-04-04T13:59:20.743872","MEAN_MOTION":1.00274563,"ECCENTRICITY":0.00028134,"INCLINATION":3.2106,"RA_OF_ASC_NODE":96.955,"ARG_OF_PERICENTER":317.7462,"MEAN_ANOMALY":61.295,"EPHEMERIS_TYPE":0,"CLASSIFICATION_TYPE":"U","NORAD_CAT_ID":67302,"ELEMENT_SET_NO":999,"REV_AT_EPOCH":88,"BSTAR":0,"MEAN_MOTION_DOT":-6.7e-7,"MEAN_MOTION_DDOT":0},{"OBJECT_NAME":"SHIJIAN-29B (SJ-29B)","OBJECT_ID":"2025-315C","EPOCH":"2026-04-04T13:59:20.746464","MEAN_MOTION":1.00275006,"ECCENTRICITY":0.00056802,"INCLINATION":3.2098,"RA_OF_ASC_NODE":96.9487,"ARG_OF_PERICENTER":329.1722,"MEAN_ANOMALY":49.9429,"EPHEMERIS_TYPE":0,"CLASSIFICATION_TYPE":"U","NORAD_CAT_ID":67403,"ELEMENT_SET_NO":999,"REV_AT_EPOCH":95,"BSTAR":0,"MEAN_MOTION_DOT":-6.8e-7,"MEAN_MOTION_DDOT":0},{"OBJECT_NAME":"ELEKTRO-L 5","OBJECT_ID":"2026-028A","EPOCH":"2026-04-04T06:05:23.491968","MEAN_MOTION":1.00271793,"ECCENTRICITY":6.44e-5,"INCLINATION":0.4107,"RA_OF_ASC_NODE":293.5901,"ARG_OF_PERICENTER":210.786,"MEAN_ANOMALY":215.6196,"EPHEMERIS_TYPE":0,"CLASSIFICATION_TYPE":"U","NORAD_CAT_ID":67756,"ELEMENT_SET_NO":999,"REV_AT_EPOCH":51,"BSTAR":0,"MEAN_MOTION_DOT":-9.9e-7,"MEAN_MOTION_DDOT":0},{"OBJECT_NAME":"JAM-E JAM 1","OBJECT_ID":"2026-028B","EPOCH":"2026-04-04T19:47:38.387040","MEAN_MOTION":1.00269817,"ECCENTRICITY":0.0001914,"INCLINATION":0.4297,"RA_OF_ASC_NODE":288.4946,"ARG_OF_PERICENTER":128.5898,"MEAN_ANOMALY":106.836,"EPHEMERIS_TYPE":0,"CLASSIFICATION_TYPE":"U","NORAD_CAT_ID":67757,"ELEMENT_SET_NO":999,"REV_AT_EPOCH":38,"BSTAR":0,"MEAN_MOTION_DOT":1.56e-6,"MEAN_MOTION_DDOT":0},{"OBJECT_NAME":"ECHOSTAR 25","OBJECT_ID":"2026-045A","EPOCH":"2026-04-04T17:18:32.707296","MEAN_MOTION":1.00270991,"ECCENTRICITY":0.0001729,"INCLINATION":0.035,"RA_OF_ASC_NODE":281.285,"ARG_OF_PERICENTER":153.5686,"MEAN_ANOMALY":248.9587,"EPHEMERIS_TYPE":0,"CLASSIFICATION_TYPE":"U","NORAD_CAT_ID":68126,"ELEMENT_SET_NO":999,"REV_AT_EPOCH":25,"BSTAR":0,"MEAN_MOTION_DOT":5.9e-7,"MEAN_MOTION_DDOT":0}]
